[{"OBJECT_NAME":"GAOFEN-9 05","OBJECT_ID":"2020-058A","EPOCH":"2026-03-10T00:01:50.876256","MEAN_MOTION":15.30293976,"ECCENTRICITY":0.0010522,"INCLINATION":97.2228,"RA_OF_ASC_NODE":111.963,"ARG_OF_PERICENTER":91.0204,"MEAN_ANOMALY":269.2242,"EPHEMERIS_TYPE":0,"CLASSIFICATION_TYPE":"U","NORAD_CAT_ID":46232,"ELEMENT_SET_NO":999,"REV_AT_EPOCH":30843,"BSTAR":0.00025120304,"MEAN_MOTION_DOT":7.299e-5,"MEAN_MOTION_DDOT":0},{"OBJECT_NAME":"STARLINK-32474","OBJECT_ID":"2024-175T","EPOCH":"2026-03-09T14:50:34.092960","MEAN_MOTION":15.30183447,"ECCENTRICITY":0.0001228,"INCLINATION":53.1598,"RA_OF_ASC_NODE":194.2985,"ARG_OF_PERICENTER":77.7745,"MEAN_ANOMALY":282.3393,"EPHEMERIS_TYPE":0,"CLASSIFICATION_TYPE":"U","NORAD_CAT_ID":61260,"ELEMENT_SET_NO":999,"REV_AT_EPOCH":8144,"BSTAR":9.3562e-5,"MEAN_MOTION_DOT":2.411e-5,"MEAN_MOTION_DDOT":0}]
